1 25982U 99065C   16033.93033597 +.00000051 +00000-0 +71032-4 0  9990,2 25982 045.0214 340.4023 0008015 297.5722 110.3745 14.31773834843948
1 25982U 99065C   16034.90689168  .00000080  00000-0  81798-4 0  9991,2 25982  45.0214 335.8205 0007966 301.9813 104.3621 14.31774429844110
1 25982U 99065C   16036.18024234  .00000116  00000-0  94982-4 0  9999,2 25982  45.0213 329.8463 0007891 307.8747 188.1387 14.31775174844292
1 25982U 99065C   16037.23061480  .00000175  00000-0  11705-3 0  9996,2 25982  45.0211 324.9181 0007820 312.8320 202.4314 14.31776036844443
1 25982U 99065C   16038.27375743  .00000228  00000-0  13675-3 0  9998,2 25982  45.0209 320.0238 0007748 317.6839 179.5308 14.31776929844591
1 25982U 99065C   16038.81283564 +.00000223 +00000-0 +13484-3 0  9990,2 25982 045.0208 317.4944 0007707 320.2495 078.2664 14.31777245844645
1 25982U 99065C   16040.16092198  .00000210  00000-0  12983-3 0  9991,2 25982  45.0206 311.1692 0007602 326.6741 187.1161 14.31778250844865
1 25982U 99065C   16041.21006809  .00000208  00000-0  12910-3 0  9999,2 25982  45.0205 306.2467 0007518 331.7309 194.9942 14.31779130845011
1 25982U 99065C   16041.81533039 +.00000192 +00000-0 +12332-3 0  9995,2 25982 045.0205 303.4067 0007467 334.6105 074.8891 14.31779556845072
1 25982U 99065C   16042.86113124  .00000199  00000-0  12600-3 0  9995,2 25982  45.0204 298.4999 0007383 339.7188  65.4610 14.31780481845256
1 25982U 99065C   16044.13907926  .00000232  00000-0  13806-3 0  9995,2 25982  45.0202 292.5038 0007273 345.9244 172.6755 14.31781699845436
1 25982U 99065C   16044.88724751 +.00000233 +00000-0 +13865-3 0  9996,2 25982 045.0200 288.9935 0007198 349.5816 069.1048 14.31782275845515
1 25982U 99065C   16045.86407946  .00000315  00000-0  16879-3 0  9998,2 25982  45.0198 284.4101 0007115 354.4547  64.0850 14.31783466845688
1 25982U 99065C   16047.06886508  .00000263  00000-0  14969-3 0  9997,2 25982  45.0195 278.7572 0007000   0.5600 153.9373 14.31784087845852
1 25982U 99065C   16048.11185954  .00000378  00000-0  19243-3 0  9998,2 25982  45.0193 273.8633 0006901   5.9354 129.7826 14.31785717846001
1 25982U 99065C   16048.86694449 +.00000349 +00000-0 +18138-3 0  9994,2 25982 045.0192 270.3202 0006836 009.8265 061.6749 14.31786295846083
1 25982U 99065C   16049.77022363  .00000314  00000-0  16866-3 0  9993,2 25982  45.0191 266.0818 0006752  14.6115  37.2678 14.31786985846246
1 25982U 99065C   16049.91614448 +.00000271 +00000-0 +15266-3 0  9995,2 25982 045.0191 265.3972 0006742 015.3877 069.3556 14.31786889846234
1 25982U 99065C   16050.90218162  .00000220  00000-0  13371-3 0  9998,2 25982  45.0190 260.7705 0006654  20.6665 111.4394 14.31787548846403
1 25982U 99065C   16052.02429775  .00000148  00000-0  10701-3 0  9990,2 25982  45.0190 255.5052 0006556  26.6229 134.9340 14.31788082846565
1 25982U 99065C   16053.06933223  .00000135  00000-0  10202-3 0  9995,2 25982  45.0189 250.6016 0006470  32.2498 121.0653 14.31788771846711
1 25982U 99065C   16054.18553747  .00000129  00000-0  99894-4 0  9996,2 25982  45.0189 245.3642 0006378  38.3409 113.9335 14.31789424846873
1 25982U 99065C   16054.51014226 +.00000174 +00000-0 +11656-3 0  9996,2 25982 045.0188 243.8409 0006321 040.1896 346.8548 14.31789837846898
1 25982U 99065C   16055.69110658  .00000318  00000-0  16998-3 0  9996,2 25982  45.0190 238.2947 0006281  45.4181 314.7281 14.31791924847086
1 25982U 99065C   16056.76100692  .00000097  00000-0  88147-4 0  9992,2 25982  45.0187 233.2792 0006216  52.4692  67.7597 14.31795070847247
1 25982U 99065C   16057.88259894  .00000150  00000-0  10773-3 0  9994,2 25982  45.0187 228.0164 0006128  58.8924  88.1145 14.31795788847402
1 25982U 99065C   16058.92711760  .00000078  00000-0  80959-4 0  9998,2 25982  45.0188 223.1152 0006065  64.8172  71.3144 14.31796072847554
1 25982U 99065C   16060.51504716  .00000067  00000-0  76788-4 0  9990,2 25982  45.0188 215.6640 0005994  73.8230 335.1276 14.31796779847783
1 25982U 99065C   16060.88587914 +.00000040 +00000-0 +67072-4 0  9998,2 25982 045.0188 213.9240 0005987 075.9446 086.2896 14.31796778847808
1 25982U 99065C   16061.85591053  .00000080  00000-0  81750-4 0  9998,2 25982  45.0190 209.3724 0005940  81.6027  45.4477 14.31797385847970
1 25982U 99065C   16061.93082378 +.00000059 +00000-0 +73783-4 0  9995,2 25982 045.0190 209.0209 0005937 082.0347 071.5262 14.31797315847954
1 25982U 99065C   16063.44825568  .00000112  00000-0  93493-4 0  9999,2 25982  45.0192 201.9007 0005880  90.9522 331.7067 14.31798170848206
1 25982U 99065C   16064.50628963  .00000165  00000-0  11342-3 0  9997,2 25982  45.0192 196.9361 0005856  97.2180  24.3070 14.31798951848357
1 25982U 99065C   16064.78427918 +.00000165 +00000-0 +11329-3 0  9999,2 25982 045.0193 195.6318 0005862 098.7741 017.0221 14.31799060848362
1 25982U 99065C   16065.83487935  .00000201  00000-0  12667-3 0  9998,2 25982  45.0193 190.7022 0005863 104.8227  31.4887 14.31799869848544
1 25982U 99065C   16067.49304683  .00000245  00000-0  14273-3 0  9993,2 25982  45.0192 182.9216 0005861 114.4948 297.0512 14.31801422848786
1 25982U 99065C   16067.56641104 +.00000245 +00000-0 +14300-3 0  9994,2 25982 045.0192 182.5774 0005861 114.9029 315.1624 14.31801483848767
1 25982U 99065C   16069.09888315  .00000210  00000-0  12982-3 0  9997,2 25982  45.0193 175.3867 0005891 123.6418 293.1468 14.31802668849019
1 25982U 99065C   16070.14804550  .00000226  00000-0  13600-3 0  9999,2 25982  45.0194 170.4637 0005919 129.6572 300.2430 14.31803665849162
1 25982U 99065C   16071.47180463  .00000223  00000-0  13466-3 0  9993,2 25982  45.0194 164.2523 0005952 137.2048 282.5803 14.31804614849359
1 25982U 99065C   16072.52221569  .00000242  00000-0  14171-3 0  9998,2 25982  45.0195 159.3235 0006010 143.0870 296.2582 14.31805452849503
1 25982U 99065C   16072.74363955 +.00000232 +00000-0 +13796-3 0  9999,2 25982 045.0195 158.2846 0006022 144.2933 357.4808 14.31805533849506
1 25982U 99065C   16073.72026226  .00000237  00000-0  13978-3 0  9992,2 25982  45.0195 153.7021 0006066 149.6625 350.9662 14.31806223849677
1 25982U 99065C   16075.23538894  .00000236  00000-0  13963-3 0  9992,2 25982  45.0194 146.5928 0006147 157.9213 239.9619 14.31807325849893
1 25982U 99065C   16076.50063942  .00000185  00000-0  12062-3 0  9992,2 25982  45.0193 140.6559 0006228 164.7197 281.1924 14.31807981850072
1 25982U 99065C   16076.65004044 +.00000181 +00000-0 +11902-3 0  9994,2 25982 045.0193 139.9549 0006232 165.4980 331.2451 14.31808071850067
1 25982U 99065C   16077.62700168  .00000142  00000-0  10471-3 0  9999,2 25982  45.0192 135.3707 0006289 170.6224 326.7311 14.31808594850236
1 25982U 99065C   16079.21433782  .00000110  00000-0  92638-4 0  9992,2 25982  45.0192 127.9223 0006397 178.9120 228.2711 14.31809390850462
1 25982U 99065C   16080.48776337  .00000125  00000-0  98327-4 0  9996,2 25982  45.0192 121.9469 0006478 185.3021 312.0978 14.31810076850640
1 25982U 99065C   16080.55529067 +.00000122 +00000-0 +97286-4 0  9990,2 25982 045.0192 121.6301 0006478 185.6535 300.1523 14.31810086850628
1 25982U 99065C   16082.50716557  .00000122  00000-0  97255-4 0  9995,2 25982  45.0191 112.4711 0006604 195.3667 281.1094 14.31810922850939
1 25982U 99065C   16082.58155457 +.00000121 +00000-0 +97024-4 0  9992,2 25982 045.0191 112.1220 0006608 195.7280 304.5572 14.31810955850915
1 25982U 99065C   16083.55773772  .00000123  00000-0  97588-4 0  9993,2 25982  45.0192 107.5414 0006662 200.4620 296.4290 14.31811424851088
1 25982U 99065C   16085.51108949  .00000051  00000-0  71027-4 0  9999,2 25982  45.0192  98.3756 0006766 209.7560 285.4355 14.31812065851367
1 25982U 99065C   16086.56061098  .00000017  00000-0  58319-4 0  9999,2 25982  45.0192  93.4509 0006815 214.6811 295.5089 14.31812416851511
1 25982U 99065C   16088.14507775  .00000011  00000-0  55993-4 0  9991,2 25982  45.0194  86.0159 0006890 222.0571 183.1803 14.31813089851749
1 25982U 99065C   16089.48990188  .00000061  00000-0  74540-4 0  9997,2 25982  45.0195  79.7055 0006932 228.2203 275.6330 14.31813868851939
1 25982U 99065C   16089.95555970 +.00000076 +00000-0 +80065-4 0  9990,2 25982 045.0195 077.5203 0006952 230.3611 156.0527 14.31814088851978
1 25982U 99065C   16091.14785218  .00000114  00000-0  94406-4 0  9991,2 25982  45.0197  71.9256 0006989 235.6987 182.3479 14.31814740852176
1 25982U 99065C   16092.19785898  .00000118  00000-0  95623-4 0  9997,2 25982  45.0198  66.9986 0007004 240.3820 195.1757 14.31815141852323
1 25982U 99065C   16093.39561470  .00000096  00000-0  87545-4 0  9997,2 25982  45.0200  61.3784 0007022 245.6767 249.7057 14.31815596852491
1 25982U 99065C   16093.73055531 +.00000087 +00000-0 +84053-4 0  9992,2 25982 045.0201 059.8068 0007035 247.1784 176.3319 14.31815733852511
1 25982U 99065C   16094.91011539  .00000059  00000-0  73974-4 0  9992,2 25982  45.0202  54.2719 0007050 252.2914 137.1666 14.31816243852712
1 25982U 99065C   16096.17620322  .00000046  00000-0  68915-4 0  9993,2 25982  45.0204  48.3312 0007041 257.7779 184.0703 14.31816852852894
1 25982U 99065C   16097.23501530  .00000055  00000-0  72527-4 0  9994,2 25982  45.0205  43.3630 0007030 262.3864 242.4130 14.31817411853041
1 25982U 99065C   16098.35124406  .00000075  00000-0  79856-4 0  9995,2 25982  45.0206  38.1254 0007009 267.2441 236.7500 14.31817979853201
1 25982U 99065C   16098.90227686 +.00000089 +00000-0 +84910-4 0  9992,2 25982 045.0207 035.5397 0007001 269.6038 197.4512 14.31818272853259
1 25982U 99065C   16099.80752394  .00000128  00000-0  99561-4 0  9993,2 25982  45.0208  31.2920 0006981 273.5687 184.1215 14.31818842853419
1 25982U 99065C   16099.87879775 +.00000112 +00000-0 +93458-4 0  9995,2 25982 045.0208 030.9575 0006977 273.8602 191.5679 14.31818760853398
1 25982U 99065C   16101.14001910  .00000134  00000-0  10147-3 0  9994,2 25982  45.0209  25.0396 0006935 279.3325 213.3880 14.31819431853609
1 25982U 99065C   16102.25695719  .00000131  00000-0  10050-3 0  9993,2 25982  45.0210  19.7986 0006881 284.1928 211.3906 14.31819975853766
